{
  "type": "FeatureCollection",
  "features": [
    {
      "type": "Feature",
      "properties": {
        "norad_id": 66861,
        "name": "STARLINK-35991",
        "group": "last-30-days",
        "lat": 4.851567991568481,
        "lon": 108.68259091446326,
        "alt_km": 320.2250056425137,
        "timestamp": "2025-12-15T19:00:44.078786+00:00",
        "meta_object_name": "STARLINK-35991",
        "meta_object_id": "2025-281P",
        "meta_epoch": "2025-12-14T20:00:06.000192",
        "meta_mean_motion": 15.8570915,
        "meta_eccentricity": 0.00017069,
        "meta_inclination": 43.0008,
        "meta_ra_of_asc_node": 109.3556,
        "meta_arg_of_pericenter": 274.6149,
        "meta_mean_anomaly": 16.9851,
        "meta_ephemeris_type": 0,
        "meta_classification_type": "U",
        "meta_norad_cat_id": 66861,
        "meta_element_set_no": 999,
        "meta_rev_at_epoch": 173,
        "meta_bstar": -0.0054825866,
        "meta_mean_motion_dot": -0.01224033,
        "meta_mean_motion_ddot": 0,
        "tle_line1": "1 66861U 25281P   25348.83340278 -.01224033  00000+0 -54826-2 0  9995",
        "tle_line2": "2 66861  43.0008 109.3556 0001706 274.6149  16.9851 15.85709150  1732"
      },
      "geometry": {
        "type": "Point",
        "coordinates": [
          108.68259091446326,
          4.851567991568481
        ]
      }
    },
    {
      "type": "Feature",
      "properties": {
        "norad_id": 66862,
        "name": "STARLINK-35974",
        "group": "last-30-days",
        "lat": 2.988705338381644,
        "lon": 106.67533744885097,
        "alt_km": 320.17316904378276,
        "timestamp": "2025-12-15T19:00:44.078796+00:00",
        "meta_object_name": "STARLINK-35974",
        "meta_object_id": "2025-281Q",
        "meta_epoch": "2025-12-14T20:00:06.000192",
        "meta_mean_motion": 15.85710586,
        "meta_eccentricity": 0.00017977,
        "meta_inclination": 43.0006,
        "meta_ra_of_asc_node": 109.3627,
        "meta_arg_of_pericenter": 279.1492,
        "meta_mean_anomaly": 9.6601,
        "meta_ephemeris_type": 0,
        "meta_classification_type": "U",
        "meta_norad_cat_id": 66862,
        "meta_element_set_no": 999,
        "meta_rev_at_epoch": 163,
        "meta_bstar": -0.0054222635,
        "meta_mean_motion_dot": -0.01212181,
        "meta_mean_motion_ddot": 0,
        "tle_line1": "1 66862U 25281Q   25348.83340278 -.01212181  00000+0 -54223-2 0  9998",
        "tle_line2": "2 66862  43.0006 109.3627 0001797 279.1492   9.6601 15.85710586  1637"
      },
      "geometry": {
        "type": "Point",
        "coordinates": [
          106.67533744885097,
          2.988705338381644
        ]
      }
    },
    {
      "type": "Feature",
      "properties": {
        "norad_id": 66863,
        "name": "STARLINK-36134",
        "group": "last-30-days",
        "lat": 7.1127412792038465,
        "lon": 111.14369746145691,
        "alt_km": 320.080359883872,
        "timestamp": "2025-12-15T19:00:44.078809+00:00",
        "meta_object_name": "STARLINK-36134",
        "meta_object_id": "2025-281R",
        "meta_epoch": "2025-12-14T20:00:06.000192",
        "meta_mean_motion": 15.85686331,
        "meta_eccentricity": 0.0001696,
        "meta_inclination": 43.001,
        "meta_ra_of_asc_node": 109.3469,
        "meta_arg_of_pericenter": 278.393,
        "meta_mean_anomaly": 16.7215,
        "meta_ephemeris_type": 0,
        "meta_classification_type": "U",
        "meta_norad_cat_id": 66863,
        "meta_element_set_no": 999,
        "meta_rev_at_epoch": 173,
        "meta_bstar": -0.0056167618,
        "meta_mean_motion_dot": -0.01249327,
        "meta_mean_motion_ddot": 0,
        "tle_line1": "1 66863U 25281R   25348.83340278 -.01249327  00000+0 -56168-2 0  9991",
        "tle_line2": "2 66863  43.0010 109.3469 0001696 278.3930  16.7215 15.85686331  1734"
      },
      "geometry": {
        "type": "Point",
        "coordinates": [
          111.14369746145691,
          7.1127412792038465
        ]
      }
    },
    {
      "type": "Feature",
      "properties": {
        "norad_id": 66864,
        "name": "STARLINK-36070",
        "group": "last-30-days",
        "lat": 8.804733116426188,
        "lon": 113.00958550645721,
        "alt_km": 320.1954281060707,
        "timestamp": "2025-12-15T19:00:44.078821+00:00",
        "meta_object_name": "STARLINK-36070",
        "meta_object_id": "2025-281S",
        "meta_epoch": "2025-12-14T20:00:06.000192",
        "meta_mean_motion": 15.85704863,
        "meta_eccentricity": 0.00016228,
        "meta_inclination": 43.0009,
        "meta_ra_of_asc_node": 109.3398,
        "meta_arg_of_pericenter": 276.2332,
        "meta_mean_anomaly": 21.5058,
        "meta_ephemeris_type": 0,
        "meta_classification_type": "U",
        "meta_norad_cat_id": 66864,
        "meta_element_set_no": 999,
        "meta_rev_at_epoch": 176,
        "meta_bstar": -0.0058453894,
        "meta_mean_motion_dot": -0.01295148,
        "meta_mean_motion_ddot": 0,
        "tle_line1": "1 66864U 25281S   25348.83340278 -.01295148  00000+0 -58454-2 0  9994",
        "tle_line2": "2 66864  43.0009 109.3398 0001622 276.2332  21.5058 15.85704863  1769"
      },
      "geometry": {
        "type": "Point",
        "coordinates": [
          113.00958550645721,
          8.804733116426188
        ]
      }
    },
    {
      "type": "Feature",
      "properties": {
        "norad_id": 66865,
        "name": "STARLINK-36117",
        "group": "last-30-days",
        "lat": 12.367986165086517,
        "lon": 117.03866273115288,
        "alt_km": 320.3729975999213,
        "timestamp": "2025-12-15T19:00:44.078831+00:00",
        "meta_object_name": "STARLINK-36117",
        "meta_object_id": "2025-281T",
        "meta_epoch": "2025-12-14T20:00:06.000192",
        "meta_mean_motion": 15.85698045,
        "meta_eccentricity": 0.00016641,
        "meta_inclination": 43.0008,
        "meta_ra_of_asc_node": 109.3258,
        "meta_arg_of_pericenter": 276.0572,
        "meta_mean_anomaly": 27.3893,
        "meta_ephemeris_type": 0,
        "meta_classification_type": "U",
        "meta_norad_cat_id": 66865,
        "meta_element_set_no": 999,
        "meta_rev_at_epoch": 173,
        "meta_bstar": -0.0063082281,
        "meta_mean_motion_dot": -0.01384191,
        "meta_mean_motion_ddot": 0,
        "tle_line1": "1 66865U 25281T   25348.83340278 -.01384191  00000+0 -63082-2 0  9995",
        "tle_line2": "2 66865  43.0008 109.3258 0001664 276.0572  27.3893 15.85698045  1736"
      },
      "geometry": {
        "type": "Point",
        "coordinates": [
          117.03866273115288,
          12.367986165086517
        ]
      }
    },
    {
      "type": "Feature",
      "properties": {
        "norad_id": 66866,
        "name": "STARLINK-36126",
        "group": "last-30-days",
        "lat": 13.95883164326248,
        "lon": 118.89314680716639,
        "alt_km": 320.196394739447,
        "timestamp": "2025-12-15T19:00:44.078843+00:00",
        "meta_object_name": "STARLINK-36126",
        "meta_object_id": "2025-281U",
        "meta_epoch": "2025-12-14T20:00:06.000192",
        "meta_mean_motion": 15.8568331,
        "meta_eccentricity": 0.00016289,
        "meta_inclination": 43.0007,
        "meta_ra_of_asc_node": 109.3197,
        "meta_arg_of_pericenter": 277.941,
        "meta_mean_anomaly": 27.9858,
        "meta_ephemeris_type": 0,
        "meta_classification_type": "U",
        "meta_norad_cat_id": 66866,
        "meta_element_set_no": 999,
        "meta_rev_at_epoch": 176,
        "meta_bstar": -0.0063383892,
        "meta_mean_motion_dot": -0.01389046,
        "meta_mean_motion_ddot": 0,
        "tle_line1": "1 66866U 25281U   25348.83340278 -.01389046  00000+0 -63384-2 0  9995",
        "tle_line2": "2 66866  43.0007 109.3197 0001628 277.9410  27.9858 15.85683310  1768"
      },
      "geometry": {
        "type": "Point",
        "coordinates": [
          118.89314680716639,
          13.95883164326248
        ]
      }
    },
    {
      "type": "Feature",
      "properties": {
        "norad_id": 66867,
        "name": "STARLINK-36101",
        "group": "last-30-days",
        "lat": 15.880347880029094,
        "lon": 121.19066306862788,
        "alt_km": 320.08573411953967,
        "timestamp": "2025-12-15T19:00:44.078853+00:00",
        "meta_object_name": "STARLINK-36101",
        "meta_object_id": "2025-281V",
        "meta_epoch": "2025-12-14T20:00:06.000192",
        "meta_mean_motion": 15.85633236,
        "meta_eccentricity": 0.00015736,
        "meta_inclination": 43.0009,
        "meta_ra_of_asc_node": 109.3116,
        "meta_arg_of_pericenter": 280.6172,
        "meta_mean_anomaly": 28.4674,
        "meta_ephemeris_type": 0,
        "meta_classification_type": "U",
        "meta_norad_cat_id": 66867,
        "meta_element_set_no": 999,
        "meta_rev_at_epoch": 157,
        "meta_bstar": -0.0064121308,
        "meta_mean_motion_dot": -0.01400039,
        "meta_mean_motion_ddot": 0,
        "tle_line1": "1 66867U 25281V   25348.83340278 -.01400039  00000+0 -64121-2 0  9992",
        "tle_line2": "2 66867  43.0009 109.3116 0001573 280.6172  28.4674 15.85633236  1570"
      },
      "geometry": {
        "type": "Point",
        "coordinates": [
          121.19066306862788,
          15.880347880029094
        ]
      }
    }
  ]
}